NIMIQ 5                 
1 35873U 09050A   26055.49002986 -.00000259  00000+0  00000+0 0  9991
2 35873   0.0504 275.9816 0002705  55.9783 286.0901  1.00270667 60210
AMAZONAS 2              
1 35942U 09054A   26055.51428944 -.00000286  00000+0  00000+0 0  9991
2 35942   1.5216  84.5934 0003480 250.7385 303.3737  1.00269241 60050
COMSATBW-1              
1 35943U 09054B   26055.61018834  .00000022  00000+0  00000+0 0  9993
2 35943   0.0438  89.7921 0003455 256.2641  91.0480  1.00271531 60176
NSS-12                  
1 36032U 09058A   26055.60897501  .00000069  00000+0  00000+0 0  9993
2 36032   0.0506 303.4136 0005102  14.9707 112.3086  1.00271586 59783
THOR 6                  
1 36033U 09058B   26055.59753496 -.00000013  00000+0  00000+0 0  9996
2 36033   0.0267 233.3526 0001894  90.4293  44.9385  1.00270688 59879
INTELSAT 14 (IS-14)     
1 36097U 09064A   26055.01828280 -.00000274  00000+0  00000+0 0  9993
2 36097   0.0235  88.1801 0002491 252.1012 135.1875  1.00271892 59477
EUTELSAT 36B            
1 36101U 09065A   26055.60767501  .00000109  00000+0  00000+0 0  9999
2 36101   0.2057  76.8678 0005889 259.6150  87.2386  1.00273177 59575
INTELSAT 15 (IS-15)     
1 36106U 09067A   26055.54323624 -.00000187  00000+0  00000+0 0  9990
2 36106   0.0188 122.0403 0002329 211.7750 101.2933  1.00271078 40094
WGS F3 (USA 211)        
1 36108U 09068A   26054.63413838  .00000100  00000+0  00000+0 0  9993
2 36108   0.3297  86.4934 0001523 301.8432 169.3309  1.00958658 45458
DIRECTV 12              
1 36131U 09075A   26054.86415280 -.00000103  00000+0  00000+0 0  9999
2 36131   0.0054 310.1448 0000221  54.0282 357.9359  1.00271433 45418
BEIDOU-2 G1             
1 36287U 10001A   26055.48285435 -.00000283  00000+0  00000+0 0  9997
2 36287   4.0271  60.6984 0004694 270.8107 137.1164  1.00273621 59046
SDO                     
1 36395U 10005A   26054.59350351 -.00000079  00000+0  00000+0 0  9995
2 36395  34.4105  88.0645 0000521 118.8618  58.2303  1.00275259 58923
INTELSAT 16 (IS-16)     
1 36397U 10006A   26055.58262823 -.00000247  00000+0  00000+0 0  9991
2 36397   0.0173 106.2698 0002054 226.5030 315.2074  1.00270305 58522
EWS-G2 (GOES 15)        
1 36411U 10008A   26055.61027502 -.00000003  00000+0  00000+0 0  9997
2 36411   0.9890  85.2265 0001453 228.9131 123.5601  1.00367219 58505
ECHOSTAR 14             
1 36499U 10010A   26055.51034799 -.00000002  00000+0  00000+0 0  9990
2 36499   0.0152 168.8734 0002222 165.6273 244.6908  1.00270596 45424
SES-1                   
1 36516U 10016A   26055.55224678 -.00000117  00000+0  00000+0 0  9994
2 36516   0.0415 301.7825 0002907  37.6130 272.8177  1.00271368 57900
ASTRA 3B                
1 36581U 10021A   26054.67521858  .00000137  00000+0  00000+0 0  9995
2 36581   1.1752  85.0766 0002956 273.9361  61.0959  1.00273431 57728
COMSATBW-2              
1 36582U 10021B   26055.60030831  .00000085  00000+0  00000+0 0  9998
2 36582   0.0467 228.4095 0002517 109.2600  46.0775  1.00269313 57822
BEIDOU-2 G3             
1 36590U 10024A   26055.61348170 -.00000138  00000+0  00000+0 0  9999
2 36590   4.2467  61.9531 0007439 317.6215  75.3454  1.00270278 57648
BADR-5                  
1 36592U 10025A   26055.60282166  .00000141  00000+0  00000+0 0  9996
2 36592   0.0486 117.1311 0001198 244.2409  36.0766  1.00269052 52082
COMS 1                  
1 36744U 10032A   26055.55172961 -.00000348  00000+0  00000+0 0  9998
2 36744   4.5153  76.9918 0001035 257.8201 146.3889  1.00270192 49967
ARABSAT-5A              
1 36745U 10032B   26055.60368832  .00000150  00000+0  00000+0 0  9999
2 36745   0.0839  58.8262 0002805 312.5052  30.9401  1.00273600 57515
ECHOSTAR 15             
1 36792U 10034A   26055.57413485 -.00000003  00000+0  00000+0 0  9992
2 36792   0.0398 286.7381 0002383  24.1220 291.4498  1.00272329 57196
BEIDOU-2 IGSO-1         
1 36828U 10036A   26053.92513572 -.00000119  00000+0  00000+0 0  9997
2 36828  54.2933 163.9971 0053888 218.4151 209.2153  1.00254845 56951
NILESAT 201             
1 36830U 10037A   26055.59614829 -.00000061  00000+0  00000+0 0  9999
2 36830   0.0376 230.4305 0002983 102.8026  28.7964  1.00271428 57245
RASCOM-QAF 1R           
1 36831U 10037B   26055.59831496  .00000015  00000+0  00000+0 0  9999
2 36831   0.0411 108.9814 0006608 219.3606  44.3928  1.00272836 57176
AEHF-1 (USA 214)        
1 36868U 10039A   26055.17567017  .00000145  00000+0  00000+0 0  9994
2 36868   7.9412  69.5181 0004476 253.5981 284.1156  1.00274079 52521
XM-5                    
1 37185U 10053A   26054.71898545 -.00000022  00000+0  00000+0 0  9990
2 37185   0.0690 274.6787 0003368 256.8030 125.7388  1.00270744 56343
BSAT-3B                 
1 37207U 10056B   26055.57197444 -.00000353  00000+0  00000+0 0  9990
2 37207   0.1038 253.3498 0002495  23.4555 193.3708  1.00271137 50964
BEIDOU-2 G4             
1 37210U 10057A   26055.48672931 -.00000116  00000+0  00000+0 0  9991
2 37210   3.3649  69.5916 0009434 208.5449 211.4310  1.00272042 56166
SKYTERRA 1              
1 37218U 10061A   26055.57760154 -.00000121  00000+0  00000+0 0  9995
2 37218   4.8845  50.9123 0001686 263.6496 306.4885  1.00271060 56067
HYLAS 1                 
1 37237U 10065A   26055.38139289 -.00000030  00000+0  00000+0 0  9997
2 37237   5.3561  74.4079 0002470 324.0054 241.5586  1.00648770  5757
INTELSAT 17 (IS-17)     
1 37238U 10065B   26055.61079502 -.00000004  00000+0  00000+0 0  9996
2 37238   0.0215 202.2681 0002818 149.5573  88.5193  1.00271153 52110
BEIDOU-2 IGSO-2         
1 37256U 10068A   26055.39048083 -.00000164  00000+0  00000+0 0  9991
2 37256  47.7470 273.2281 0047412 213.1314 275.9707  1.00261230 55666
EUTELSAT KA-SAT 9A      
1 37258U 10069A   26055.38520625  .00000060  00000+0  00000+0 0  9994
2 37258   0.0540 359.4320 0002583 133.0603 169.4264  1.00276963 42873
HISPASAT 30W-5          
1 37264U 10070A   26055.38056884 -.00000218  00000+0  00000+0 0  9990
2 37264   0.0168 139.7264 0003146 203.1615 278.3612  1.00271292 52058
KOREASAT 6              
1 37265U 10070B   26055.63981631 -.00000115  00000+0  00000+0 0  9992
2 37265   0.0146 149.6090 0002439 170.2389 224.8519  1.00271802 55645
BEIDOU-2 IGSO-3         
1 37384U 11013A   26054.90500897 -.00000155  00000+0  00000+0 0  9996
2 37384  62.2580  41.2202 0035056 190.6567 353.3010  1.00294787 54523
INTELSAT 28 (IS-28)     
1 37392U 11016A   26055.44870754 -.00000228  00000+0  00000+0 0  9991
2 37392   1.5136  84.0967 0004548 245.8584 314.1815  1.00271757 52159
YAHSAT 1A               
1 37393U 11016B   26055.60810835  .00000098  00000+0  00000+0 0  9998
2 37393   0.0110 134.5231 0003287 205.1404  86.2062  1.00269702 41279
SBIRS GEO-1 (USA 230)   
1 37481U 11019A   26055.46526095  .00000097  00000+0  00000+0 0  9994
2 37481   4.2881  53.0905 0002321 284.9823  35.5462  1.00272321 54264
TELSTAR 14R             
1 37602U 11021A   26055.48447497 -.00000282  00000+0  00000+0 0  9999
2 37602   0.0162  96.8056 0002286 241.8239 287.1163  1.00270831 54706
GSAT-8                  
1 37605U 11022A   26055.10936987  .00000083  00000+0  00000+0 0  9997
2 37605   1.8376  83.2750 0008097 210.3364 314.8041  1.00272946 52083
ST-2                    
1 37606U 11022B   26055.54384291 -.00000214  00000+0  00000+0 0  9998
2 37606   0.0182 149.1699 0001766 184.7023 104.3364  1.00271472 54148
ZHONGXING-10            
1 37677U 11026A   26055.61460837 -.00000192  00000+0  00000+0 0  9994
2 37677   0.7537  85.7077 0002572 248.3966 127.1529  1.00270270 53871
SES-3                   
1 37748U 11035A   26055.57725487 -.00000105  00000+0  00000+0 0  9997
2 37748   1.0343  84.4120 0003511 253.2945 281.5357  1.00270738 53468
KAZSAT-2                
1 37749U 11035B   26054.97373594 -.00000212  00000+0  00000+0 0  9998
2 37749   0.0172 156.0657 0003781 219.0758 215.7527  1.00335199 52268
BEIDOU-2 IGSO-4         
1 37763U 11038A   26054.76119230 -.00000076  00000+0  00000+0 0  9997
2 37763  54.5903 166.6978 0154110 230.8128 124.8249  1.00267169 53508
ASTRA 1N                
1 37775U 11041A   26055.60152164  .00000116  00000+0  00000+0 0  9995
2 37775   0.0618   0.9928 0003639   7.5705  21.6328  1.00269819 43396
BSAT-3C (JCSAT-110R)    
1 37776U 11041B   26055.57197444 -.00000353  00000+0  00000+0 0  9996
2 37776   0.0163  39.9633 0000172  99.5186 330.8237  1.00271446 49344
PAKSAT-1R               
1 37779U 11042A   26055.60516167  .00000151  00000+0  00000+0 0  9996
2 37779   0.3958  85.8773 0002031 292.2284  32.1222  1.00273890 53340
SES-2                   
1 37809U 11049A   26055.58046155 -.00000199  00000+0  00000+0 0  9992
2 37809   0.0150  71.0279 0002922 259.1167 306.2521  1.00271001 52836
ARABSAT-5C              
1 37810U 11049B   26055.60169498  .00000120  00000+0  00000+0 0  9996
2 37810   0.0539  14.6195 0002764 321.8773  54.5516  1.00271598 52909
EUTELSAT 7 WEST A       
1 37816U 11051A   26055.59606162 -.00000064  00000+0  00000+0 0  9995
2 37816   0.0654 349.4100 0002060 256.3708 115.9444  1.00270637 52744
QUETZSAT 1              
1 37826U 11054A   26055.51108276 -.00000244  00000+0  00000+0 0  9994
2 37826   0.0405 300.8885 0002859  35.1360 285.3305  1.00270040 48744
INTELSAT 18 (IS-18)     
1 37834U 11056A   26055.56204299  .00000050  00000+0  00000+0 0  9996
2 37834   0.0352 270.5522 0001898  55.3315 210.8567  1.00270073 52688
EUTELSAT 16A            
1 37836U 11057A   26055.60082831  .00000101  00000+0  00000+0 0  9997
2 37836   0.0619 336.9248 0005486   5.1298  44.7014  1.00273743  6203
VIASAT-1                
1 37843U 11059A   26055.57482818 -.00000026  00000+0  00000+0 0  9999
2 37843   0.0163 164.5998 0002372 169.9182 271.7181  1.00269830 46195
ASIASAT 7               
1 37933U 11069A   26055.61859505 -.00000337  00000+0  00000+0 0  9991
2 37933   0.0348 249.8937 0001236  52.6626 180.1113  1.00271886 43738
